OBJECT_NAME,OBJECT_ID,EPOCH,MEAN_MOTION,ECCENTRICITY,INCLINATION,RA_OF_ASC_NODE,ARG_OF_PERICENTER,MEAN_ANOMALY,EPHEMERIS_TYPE,CLASSIFICATION_TYPE,NORAD_CAT_ID,ELEMENT_SET_NO,REV_AT_EPOCH,BSTAR,MEAN_MOTION_DOT,MEAN_MOTION_DDOT
COSMOS 2510,2015-066A,2026-06-13T10:52:48.925920,2.00914517,.72022735,63.4935,346.6694,274.6750,13.7321,0,U,41032,999,7739,0,-.165E-4,0
LAOSAT 1,2015-067A,2026-06-14T00:01:50.049408,1.00270918,.000219,0.0231,162.8359,231.3661,357.0849,0,U,41034,999,3882,0,-.333E-5,0
TELSTAR 12V,2015-068A,2026-06-14T04:28:48.573120,1.00271063,.00020997,0.0023,347.5157,87.6862,239.5001,0,U,41036,999,3859,0,-.11E-5,0
YAOGAN-29,2015-069A,2026-06-14T06:38:25.417248,14.83081238,.00027401,98.0031,193.9048,58.6606,301.4875,0,U,41038,999,57019,-.17713659E-4,-.198E-5,0
ELEKTRO-L 2,2015-074A,2026-06-14T01:03:32.621184,1.00270718,.00007046,6.6845,70.5612,243.9352,309.2359,0,U,41105,999,3847,0,-.114E-5,0
COSMOS 2513,2015-075A,2026-06-13T10:06:46.767168,1.00271348,.0003255,0.0796,100.5492,331.7026,61.4361,0,U,41121,999,3851,0,-.126E-5,0
VELOX-CI,2015-077A,2026-06-14T05:02:27.789504,15.49731419,.00045759,14.9818,107.5171,188.1394,171.8858,0,U,41166,999,58226,.33924006E-3,.2068E-3,0
KENT RIDGE 1,2015-077B,2026-06-13T16:37:26.874624,15.23112968,.0008249,14.9789,291.9825,189.0994,170.9179,0,U,41167,999,58056,.14065697E-3,.4186E-4,0
DAMPE,2015-078A,2026-06-14T07:00:46.886112,15.30779298,.00138119,97.4554,170.7450,86.1206,274.1614,0,U,41173,999,58410,.53026478E-4,.1503E-4,0
GSAT0209 (GALILEO 12),2015-079A,2026-06-11T18:13:38.595072,1.70473724,.00053697,55.8242,101.4109,341.4474,18.4942,0,U,41174,999,6468,0,.7E-7,0
GSAT0208 (GALILEO 11),2015-079B,2026-06-13T03:40:14.751264,1.70473585,.00048272,55.8236,101.3694,343.9776,15.9636,0,U,41175,999,6512,0,-.4E-7,0
ORBCOMM FM114,2015-081A,2026-06-13T06:43:33.452256,14.58854678,.00022521,47.0060,20.4759,192.2086,167.8745,0,U,41179,999,55718,.12794477E-3,.433E-5,0
ORBCOMM FM110,2015-081D,2026-06-14T07:06:13.757184,14.58876713,.00025892,47.0033,15.1133,58.4001,301.7137,0,U,41182,999,55720,.17013526E-3,.633E-5,0
ORBCOMM FM118,2015-081E,2026-06-12T21:24:31.011840,14.58879544,.00029292,47.0079,22.0820,12.9133,347.1827,0,U,41183,999,55710,.57212285E-3,.2535E-4,0
ORBCOMM FM112,2015-081F,2026-06-14T01:27:43.252128,14.58900185,.00035535,46.9998,285.0310,204.6631,155.4085,0,U,41184,999,55849,.15666622E-3,.57E-5,0
ORBCOMM FM113,2015-081G,2026-06-12T01:13:53.961600,14.58853293,.0001998,47.0017,294.9070,204.7602,155.3188,0,U,41185,999,55818,.10704795E-3,.335E-5,0
ORBCOMM FM108,2015-081J,2026-06-13T09:12:13.186080,14.58866983,.00027346,47.0056,200.1825,209.5581,150.5151,0,U,41187,999,55952,.11596101E-3,.377E-5,0
ORBCOMM FM117,2015-081K,2026-06-13T19:52:53.295168,14.58863203,.00033108,46.9996,196.7126,211.3571,148.7118,0,U,41188,999,55963,.10492082E-3,.325E-5,0
ORBCOMM FM116,2015-081L,2026-06-14T00:20:39.074496,14.58879012,.00007162,47.0030,285.6241,38.4671,321.6265,0,U,41189,999,55847,.16222606E-3,.596E-5,0
EXPRESS-AMU1,2015-082A,2026-06-14T04:43:24.672576,1.00272388,.00026274,0.0154,48.6945,35.7777,284.9711,0,U,41191,999,3823,0,.164E-5,0
GAOFEN-4,2015-083A,2026-06-14T02:37:38.601120,1.00270299,.00043663,0.3481,83.8704,114.2838,209.3813,0,U,41194,999,3849,0,-.326E-5,0
BELINTERSAT-1,2016-001A,2026-06-14T04:47:46.754880,1.00268567,.00023835,0.0451,255.2322,151.1882,339.4938,0,U,41238,999,3820,0,.116E-5,0
JASON-3,2016-002A,2026-06-14T06:49:13.655712,12.87628034,.00085487,66.0400,131.9383,272.9363,87.0678,0,U,41240,999,48687,.27158969E-4,-.55E-6,0
IRNSS-1E,2016-003A,2026-06-12T15:26:18.985920,1.00267194,.00179637,33.2248,59.8162,179.0965,5.2620,0,U,41241,999,3803,0,-.313E-5,0
EUTELSAT 9B,2016-005A,2026-06-14T04:35:40.415136,1.00270407,.0001689,0.0734,74.6324,328.0748,297.6789,0,U,41310,999,3808,0,.7E-6,0
NAVSTAR 76 (USA 266),2016-007A,2026-06-10T21:16:03.868896,2.00551975,.00960688,55.5202,89.7095,247.3778,111.5924,0,U,41328,999,7571,0,-.12E-6,0
COSMOS 2514 [GLONASS-M],2016-008A,2026-06-14T00:00:29.301696,2.13102509,.00111652,65.0237,313.1159,197.7878,162.1578,0,U,41330,999,8055,0,-.53E-6,0
SENTINEL-3A,2016-011A,2026-06-14T06:30:23.457312,14.26739240,.00013876,98.6249,232.6965,102.6045,257.5291,0,U,41335,999,53764,.59984492E-4,.102E-5,0
HORYU-4,2016-012D,2026-06-14T04:23:58.368480,15.93563943,.00046123,30.9846,101.0543,251.9494,108.0665,0,U,41340,999,57033,.1134375E-2,.430944E-2,.66472476E-4
SES-9,2016-013A,2026-06-13T20:54:18.563616,1.00269376,.00019963,0.0107,338.3404,107.7175,237.9960,0,U,41380,999,3740,0,-.335E-5,0
EUTELSAT 65 WEST A,2016-014A,2026-06-14T04:41:38.580288,1.00269916,.00020029,0.0557,22.8929,50.3399,194.4866,0,U,41382,999,3749,0,-.268E-5,0
