COSMOS 2510             
1 41032U 15066A   26164.45334405 -.00001650  00000+0  00000+0 0  9996
2 41032  63.4935 346.6694 7202273 274.6750  13.7321  2.00914517 77396
LAOSAT 1                
1 41034U 15067A   26165.00127372 -.00000333  00000+0  00000+0 0  9991
2 41034   0.0231 162.8359 0002190 231.3661 357.0849  1.00270918 38823
TELSTAR 12V             
1 41036U 15068A   26165.18667330 -.00000110  00000+0  00000+0 0  9999
2 41036   0.0023 347.5157 0002099  87.6862 239.5001  1.00271063 38595
YAOGAN-29               
1 41038U 15069A   26165.27668307 -.00000198  00000+0 -17714-4 0  9999
2 41038  98.0031 193.9048 0002740  58.6606 301.4875 14.83081238570195
ELEKTRO-L 2             
1 41105U 15074A   26165.04412756 -.00000114  00000+0  00000+0 0  9992
2 41105   6.6845  70.5612 0000704 243.9352 309.2359  1.00270718 38471
COSMOS 2513             
1 41121U 15075A   26164.42137462 -.00000126  00000+0  00000+0 0  9993
2 41121   0.0796 100.5492 0003255 331.7026  61.4361  1.00271348 38515
VELOX-CI                
1 41166U 15077A   26165.21004386  .00020680  00000+0  33924-3 0  9991
2 41166  14.9818 107.5171 0004575 188.1394 171.8858 15.49731419582263
KENT RIDGE 1            
1 41167U 15077B   26164.69267216  .00004186  00000+0  14066-3 0  9995
2 41167  14.9789 291.9825 0008249 189.0994 170.9179 15.23112968580564
DAMPE                   
1 41173U 15078A   26165.29220933  .00001503  00000+0  53026-4 0  9995
2 41173  97.4554 170.7450 0013811  86.1206 274.1614 15.30779298584107
GSAT0209 (GALILEO 12)   
1 41174U 15079A   26162.75947448  .00000007  00000+0  00000+0 0  9999
2 41174  55.8242 101.4109 0005369 341.4474  18.4942  1.70473724 64688
GSAT0208 (GALILEO 11)   
1 41175U 15079B   26164.15294851 -.00000004  00000+0  00000+0 0  9997
2 41175  55.8236 101.3694 0004827 343.9776  15.9636  1.70473585 65127
ORBCOMM FM114           
1 41179U 15081A   26164.28024829  .00000433  00000+0  12794-3 0  9996
2 41179  47.0060  20.4759 0002252 192.2086 167.8745 14.58854678557187
ORBCOMM FM110           
1 41182U 15081D   26165.29599256  .00000633  00000+0  17014-3 0  9995
2 41182  47.0033  15.1133 0002589  58.4001 301.7137 14.58876713557202
ORBCOMM FM118           
1 41183U 15081E   26163.89202560  .00002535  00000+0  57212-3 0  9996
2 41183  47.0079  22.0820 0002929  12.9133 347.1827 14.58879544557106
ORBCOMM FM112           
1 41184U 15081F   26165.06091727  .00000570  00000+0  15667-3 0  9994
2 41184  46.9998 285.0310 0003553 204.6631 155.4085 14.58900185558492
ORBCOMM FM113           
1 41185U 15081G   26163.05131900  .00000335  00000+0  10705-3 0  9997
2 41185  47.0017 294.9070 0001998 204.7602 155.3188 14.58853293558185
ORBCOMM FM108           
1 41187U 15081J   26164.38348595  .00000377  00000+0  11596-3 0  9991
2 41187  47.0056 200.1825 0002734 209.5581 150.5151 14.58866983559521
ORBCOMM FM117           
1 41188U 15081K   26164.82839462  .00000325  00000+0  10492-3 0  9996
2 41188  46.9996 196.7126 0003310 211.3571 148.7118 14.58863203559634
ORBCOMM FM116           
1 41189U 15081L   26165.01434114  .00000596  00000+0  16223-3 0  9992
2 41189  47.0030 285.6241 0000716  38.4671 321.6265 14.58879012558479
EXPRESS-AMU1            
1 41191U 15082A   26165.19681334  .00000164  00000+0  00000+0 0  9996
2 41191   0.0154  48.6945 0002627  35.7777 284.9711  1.00272388 38236
GAOFEN-4                
1 41194U 15083A   26165.10947455 -.00000326  00000+0  00000+0 0  9991
2 41194   0.3481  83.8704 0004366 114.2838 209.3813  1.00270299 38493
BELINTERSAT-1           
1 41238U 16001A   26165.19984670  .00000116  00000+0  00000+0 0  9996
2 41238   0.0451 255.2322 0002383 151.1882 339.4938  1.00268567 38200
JASON-3                 
1 41240U 16002A   26165.28418583 -.00000055  00000+0  27159-4 0  9997
2 41240  66.0400 131.9383 0008548 272.9363  87.0678 12.87628034486874
IRNSS-1E                
1 41241U 16003A   26163.64327530 -.00000313  00000+0  00000+0 0  9996
2 41241  33.2248  59.8162 0017963 179.0965   5.2620  1.00267194 38039
EUTELSAT 9B             
1 41310U 16005A   26165.19143999  .00000070  00000+0  00000+0 0  9991
2 41310   0.0734  74.6324 0001689 328.0748 297.6789  1.00270407 38085
NAVSTAR 76 (USA 266)    
1 41328U 16007A   26161.88615589 -.00000012  00000+0  00000+0 0  9990
2 41328  55.5202  89.7095 0096068 247.3778 111.5924  2.00551975 75711
COSMOS 2514 [GLONASS-M] 
1 41330U 16008A   26165.00033914 -.00000053  00000+0  00000+0 0  9993
2 41330  65.0237 313.1159 0011165 197.7878 162.1578  2.13102509 80551
SENTINEL-3A             
1 41335U 16011A   26165.27110483  .00000102  00000+0  59984-4 0  9992
2 41335  98.6249 232.6965 0001387 102.6045 257.5291 14.26739240537640
HORYU-4                 
1 41340U 16012D   26165.18331445  .00430944  66472-4  11344-2 0  9999
2 41340  30.9846 101.0543 0004612 251.9494 108.0665 15.93563943570337
SES-9                   
1 41380U 16013A   26164.87104819 -.00000335  00000+0  00000+0 0  9994
2 41380   0.0107 338.3404 0001996 107.7175 237.9960  1.00269376 37408
EUTELSAT 65 WEST A      
1 41382U 16014A   26165.19558542 -.00000268  00000+0  00000+0 0  9994
2 41382   0.0557  22.8929 0002002  50.3399 194.4866  1.00269916 37497
